{"type": "FeatureCollection", "features": [ {"type": "Feature", "properties": {"norad_id": 41774, "name": "SKYSAT-C3", "group": "resource", "lat": 43.95521885894232, "lon": 4.8994257776815315, "alt_km": 430.4567305752498, "timestamp": "2025-12-03T10:52:57.107239+00:00", "meta": {"OBJECT_NAME": "SKYSAT-C3", "OBJECT_ID": "2016-058E", "EPOCH": "2025-12-03T01:21:27.925344", "MEAN_MOTION": 15.438754, "ECCENTRICITY": 0.0001372, "INCLINATION": 96.9314, "RA_OF_ASC_NODE": 11.2574, "ARG_OF_PERICENTER": 99.3363, "MEAN_ANOMALY": 260.8041, "EPHEMERIS_TYPE": 0, "CLASSIFICATION_TYPE": "U", "NORAD_CAT_ID": 41774, "ELEMENT_SET_NO": 999, "REV_AT_EPOCH": 51576, "BSTAR": 0.00055763, "MEAN_MOTION_DOT": 0.00025275, "MEAN_MOTION_DDOT": 0}, "tle": {"line1": "1 41774U 16058E   25337.05657321  .00025275  00000+0  55763-3 0  9991", "line2": "2 41774  96.9314  11.2574 0001372  99.3363 260.8041 15.43875400515765"}}, "geometry": {"type": "Point", "coordinates": [4.8994257776815315, 43.95521885894232]}}, {"type": "Feature", "properties": {"norad_id": 41785, "name": "ALSAT 1B", "group": "resource", "lat": 30.992564720911666, "lon": 174.355753544352, "alt_km": 645.9243321642671, "timestamp": "2025-12-03T10:52:57.107250+00:00", "meta": {"OBJECT_NAME": "ALSAT 1B", "OBJECT_ID": "2016-059C", "EPOCH": "2025-12-03T03:41:05.572608", "MEAN_MOTION": 14.72058829, "ECCENTRICITY": 0.0010362, "INCLINATION": 97.7819, "RA_OF_ASC_NODE": 349.3569, "ARG_OF_PERICENTER": 130.9979, "MEAN_ANOMALY": 229.2126, "EPHEMERIS_TYPE": 0, "CLASSIFICATION_TYPE": "U", "NORAD_CAT_ID": 41785, "ELEMENT_SET_NO": 999, "REV_AT_EPOCH": 49173, "BSTAR": 0.00010964, "MEAN_MOTION_DOT": 6.42e-06, "MEAN_MOTION_DDOT": 0}, "tle": {"line1": "1 41785U 16059C   25337.15353672  .00000642  00000+0  10964-3 0  9992", "line2": "2 41785  97.7819 349.3569 0010362 130.9979 229.2126 14.72058829491731"}}, "geometry": {"type": "Point", "coordinates": [174.355753544352, 30.992564720911666]}}, {"type": "Feature", "properties": {"norad_id": 41787, "name": "PATHFINDER 1", "group": "resource", "lat": 25.307069879761666, "lon": -23.06483506893442, "alt_km": 666.562884510653, "timestamp": "2025-12-03T10:52:57.107260+00:00", "meta": {"OBJECT_NAME": "PATHFINDER 1", "OBJECT_ID": "2016-059E", "EPOCH": "2025-12-02T23:18:35.078112", "MEAN_MOTION": 14.6729324, "ECCENTRICITY": 0.0029946, "INCLINATION": 97.8139, "RA_OF_ASC_NODE": 340.1983, "ARG_OF_PERICENTER": 110.8576, "MEAN_ANOMALY": 249.5841, "EPHEMERIS_TYPE": 0, "CLASSIFICATION_TYPE": "U", "NORAD_CAT_ID": 41787, "ELEMENT_SET_NO": 999, "REV_AT_EPOCH": 49093, "BSTAR": 0.00020168, "MEAN_MOTION_DOT": 1.099e-05, "MEAN_MOTION_DDOT": 0}, "tle": {"line1": "1 41787U 16059E   25336.97123933  .00001099  00000+0  20168-3 0  9992", "line2": "2 41787  97.8139 340.1983 0029946 110.8576 249.5841 14.67293240490938"}}, "geometry": {"type": "Point", "coordinates": [-23.06483506893442, 25.307069879761666]}}, {"type": "Feature", "properties": {"norad_id": 41790, "name": "SCATSAT 1", "group": "resource", "lat": -9.205737541415006, "lon": 35.33837480891766, "alt_km": 675.0328778768171, "timestamp": "2025-12-03T10:52:57.107270+00:00", "meta": {"OBJECT_NAME": "SCATSAT 1", "OBJECT_ID": "2016-059H", "EPOCH": "2025-12-03T02:48:20.618784", "MEAN_MOTION": 14.78880649, "ECCENTRICITY": 0.0055783, "INCLINATION": 98.148, "RA_OF_ASC_NODE": 33.6671, "ARG_OF_PERICENTER": 158.5584, "MEAN_ANOMALY": 201.7981, "EPHEMERIS_TYPE": 0, "CLASSIFICATION_TYPE": "U", "NORAD_CAT_ID": 41790, "ELEMENT_SET_NO": 999, "REV_AT_EPOCH": 7260, "BSTAR": 0.00033696, "MEAN_MOTION_DOT": 2.491e-05, "MEAN_MOTION_DDOT": 0}, "tle": {"line1": "1 41790U 16059H   25337.11690531  .00002491  00000+0  33696-3 0  9993", "line2": "2 41790  98.1480  33.6671 0055783 158.5584 201.7981 14.78880649 72601"}}, "geometry": {"type": "Point", "coordinates": [35.33837480891766, -9.205737541415006]}}, {"type": "Feature", "properties": {"norad_id": 41875, "name": "GOKTURK 1A", "group": "resource", "lat": -72.55487352791418, "lon": 22.836169138371673, "alt_km": 692.4388943035674, "timestamp": "2025-12-03T10:52:57.107281+00:00", "meta": {"OBJECT_NAME": "GOKTURK 1A", "OBJECT_ID": "2016-073A", "EPOCH": "2025-12-03T03:09:20.759328", "MEAN_MOTION": 14.62760598, "ECCENTRICITY": 0.0001237, "INCLINATION": 98.1431, "RA_OF_ASC_NODE": 229.6248, "ARG_OF_PERICENTER": 81.8976, "MEAN_ANOMALY": 278.2366, "EPHEMERIS_TYPE": 0, "CLASSIFICATION_TYPE": "U", "NORAD_CAT_ID": 41875, "ELEMENT_SET_NO": 999, "REV_AT_EPOCH": 48016, "BSTAR": 0.00015717, "MEAN_MOTION_DOT": 7.54e-06, "MEAN_MOTION_DDOT": 0}, "tle": {"line1": "1 41875U 16073A   25337.13149027  .00000754  00000+0  15717-3 0  9998", "line2": "2 41875  98.1431 229.6248 0001237  81.8976 278.2366 14.62760598480169"}}, "geometry": {"type": "Point", "coordinates": [22.836169138371673, -72.55487352791418]}}, {"type": "Feature", "properties": {"norad_id": 41877, "name": "RESOURCESAT-2A", "group": "resource", "lat": -56.443194133865966, "lon": -146.1054160105547, "alt_km": 826.6390826200304, "timestamp": "2025-12-03T10:52:57.107292+00:00", "meta": {"OBJECT_NAME": "RESOURCESAT-2A", "OBJECT_ID": "2016-074A", "EPOCH": "2025-12-03T04:42:04.970304", "MEAN_MOTION": 14.21592717, "ECCENTRICITY": 0.0001174, "INCLINATION": 98.7768, "RA_OF_ASC_NODE": 47.107, "ARG_OF_PERICENTER": 302.7926, "MEAN_ANOMALY": 57.3138, "EPHEMERIS_TYPE": 0, "CLASSIFICATION_TYPE": "U", "NORAD_CAT_ID": 41877, "ELEMENT_SET_NO": 999, "REV_AT_EPOCH": 46645, "BSTAR": 0.00012414, "MEAN_MOTION_DOT": 2.28e-06, "MEAN_MOTION_DDOT": 0}, "tle": {"line1": "1 41877U 16074A   25337.19589086  .00000228  00000+0  12414-3 0  9997", "line2": "2 41877  98.7768  47.1070 0001174 302.7926  57.3138 14.21592717466456"}}, "geometry": {"type": "Point", "coordinates": [-146.1054160105547, -56.443194133865966]}}, {"type": "Feature", "properties": {"norad_id": 41948, "name": "CARTOSAT-2D", "group": "resource", "lat": -45.70622272278297, "lon": -152.60566161675908, "alt_km": 511.6758639518348, "timestamp": "2025-12-03T10:52:57.107302+00:00", "meta": {"OBJECT_NAME": "CARTOSAT-2D", "OBJECT_ID": "2017-008A", "EPOCH": "2025-12-03T06:43:44.522688", "MEAN_MOTION": 15.19341137, "ECCENTRICITY": 0.0004908, "INCLINATION": 97.4402, "RA_OF_ASC_NODE": 34.9214, "ARG_OF_PERICENTER": 197.9846, "MEAN_ANOMALY": 162.1215, "EPHEMERIS_TYPE": 0, "CLASSIFICATION_TYPE": "U", "NORAD_CAT_ID": 41948, "ELEMENT_SET_NO": 999, "REV_AT_EPOCH": 48783, "BSTAR": 2.9893e-06, "MEAN_MOTION_DOT": -4e-08, "MEAN_MOTION_DDOT": 0}, "tle": {"line1": "1 41948U 17008A   25337.28037642 -.00000004  00000+0  29893-5 0  9994", "line2": "2 41948  97.4402  34.9214 0004908 197.9846 162.1215 15.19341137487835"}}, "geometry": {"type": "Point", "coordinates": [-152.60566161675908, -45.70622272278297]}}, {"type": "Feature", "properties": {"norad_id": 42063, "name": "SENTINEL-2B", "group": "resource", "lat": -75.6704219667159, "lon": -166.1642511724225, "alt_km": 797.086827113355, "timestamp": "2025-12-03T10:52:57.107312+00:00", "meta": {"OBJECT_NAME": "SENTINEL-2B", "OBJECT_ID": "2017-013A", "EPOCH": "2025-12-03T04:38:35.714688", "MEAN_MOTION": 14.30809706, "ECCENTRICITY": 0.0001116, "INCLINATION": 98.5727, "RA_OF_ASC_NODE": 49.7731, "ARG_OF_PERICENTER": 98.3278, "MEAN_ANOMALY": 261.8031, "EPHEMERIS_TYPE": 0, "CLASSIFICATION_TYPE": "U", "NORAD_CAT_ID": 42063, "ELEMENT_SET_NO": 999, "REV_AT_EPOCH": 45661, "BSTAR": 0.00010426, "MEAN_MOTION_DOT": 2.3e-06, "MEAN_MOTION_DDOT": 0}, "tle": {"line1": "1 42063U 17013A   25337.19346892  .00000230  00000+0  10426-3 0  9999", "line2": "2 42063  98.5727  49.7731 0001116  98.3278 261.8031 14.30809706456613"}}, "geometry": {"type": "Point", "coordinates": [-166.1642511724225, -75.6704219667159]}}, {"type": "Feature", "properties": {"norad_id": 42767, "name": "CARTOSAT-2E", "group": "resource", "lat": 43.26936496096322, "lon": -137.7555084624356, "alt_km": 506.20896633088705, "timestamp": "2025-12-03T10:52:57.107323+00:00", "meta": {"OBJECT_NAME": "CARTOSAT-2E", "OBJECT_ID": "2017-036C", "EPOCH": "2025-12-03T03:57:41.776704", "MEAN_MOTION": 15.19164652, "ECCENTRICITY": 0.0002325, "INCLINATION": 97.4578, "RA_OF_ASC_NODE": 34.8766, "ARG_OF_PERICENTER": 287.9721, "MEAN_ANOMALY": 72.126, "EPHEMERIS_TYPE": 0, "CLASSIFICATION_TYPE": "U", "NORAD_CAT_ID": 42767, "ELEMENT_SET_NO": 999, "REV_AT_EPOCH": 46838, "BSTAR": 0.00036378, "MEAN_MOTION_DOT": 7.583e-05, "MEAN_MOTION_DDOT": 0}, "tle": {"line1": "1 42767U 17036C   25337.16506686  .00007583  00000+0  36378-3 0  9993", "line2": "2 42767  97.4578  34.8766 0002325 287.9721  72.1260 15.19164652468387"}}, "geometry": {"type": "Point", "coordinates": [-137.7555084624356, 43.26936496096322]}}, {"type": "Feature", "properties": {"norad_id": 42920, "name": "FORMOSAT-5", "group": "resource", "lat": -52.518675832918035, "lon": 62.857942978179416, "alt_km": 722.456355839242, "timestamp": "2025-12-03T10:52:57.107334+00:00", "meta": {"OBJECT_NAME": "FORMOSAT-5", "OBJECT_ID": "2017-049A", "EPOCH": "2025-12-03T04:30:26.194752", "MEAN_MOTION": 14.50995634, "ECCENTRICITY": 0.001033, "INCLINATION": 98.2463, "RA_OF_ASC_NODE": 51.6959, "ARG_OF_PERICENTER": 327.4143, "MEAN_ANOMALY": 32.6413, "EPHEMERIS_TYPE": 0, "CLASSIFICATION_TYPE": "U", "NORAD_CAT_ID": 42920, "ELEMENT_SET_NO": 999, "REV_AT_EPOCH": 43825, "BSTAR": 9.794e-05, "MEAN_MOTION_DOT": 3.44e-06, "MEAN_MOTION_DDOT": 0}, "tle": {"line1": "1 42920U 17049A   25337.18780318  .00000344  00000+0  97940-4 0  9997", "line2": "2 42920  98.2463  51.6959 0010330 327.4143  32.6413 14.50995634438254"}}, "geometry": {"type": "Point", "coordinates": [62.857942978179416, -52.518675832918035]}}]}